{
  "type": "FeatureCollection",
  "features": [
    {
      "type": "Feature",
      "properties": {
        "norad_id": 66740,
        "name": "TRANSPORTER-15CC",
        "group": "last-30-days",
        "lat": -66.3019604410118,
        "lon": 90.07785453354217,
        "alt_km": 519.4594557838964,
        "timestamp": "2025-12-27T05:29:37.916566+00:00",
        "meta_object_name": "TRANSPORTER-15CC",
        "meta_object_id": "2025-276CC",
        "meta_epoch": "2025-12-26T21:52:45.435936",
        "meta_mean_motion": 15.17774473,
        "meta_eccentricity": 0.00023569,
        "meta_inclination": 97.4404,
        "meta_ra_of_asc_node": 72.4443,
        "meta_arg_of_pericenter": 216.3357,
        "meta_mean_anomaly": 143.7717,
        "meta_ephemeris_type": 0,
        "meta_classification_type": "U",
        "meta_norad_cat_id": 66740,
        "meta_element_set_no": 999,
        "meta_rev_at_epoch": 427,
        "meta_bstar": 0.00045512869,
        "meta_mean_motion_dot": 9.132e-05,
        "meta_mean_motion_ddot": 0,
        "tle_line1": "1 66740U 25276CC  25360.91163699  .00009132  00000+0  45513-3 0  9990",
        "tle_line2": "2 66740  97.4404  72.4443 0002356 216.3357 143.7717 15.17774473  4279"
      },
      "geometry": {
        "type": "Point",
        "coordinates": [
          90.07785453354217,
          -66.3019604410118
        ]
      }
    },
    {
      "type": "Feature",
      "properties": {
        "norad_id": 66741,
        "name": "TRANSPORTER-15CD",
        "group": "last-30-days",
        "lat": -72.69995760057701,
        "lon": 97.55205424637482,
        "alt_km": 520.1066572716691,
        "timestamp": "2025-12-27T05:29:37.916580+00:00",
        "meta_object_name": "TRANSPORTER-15CD",
        "meta_object_id": "2025-276CD",
        "meta_epoch": "2025-12-26T21:54:32.743008",
        "meta_mean_motion": 15.17658639,
        "meta_eccentricity": 0.00012744,
        "meta_inclination": 97.4402,
        "meta_ra_of_asc_node": 72.4341,
        "meta_arg_of_pericenter": 205.1373,
        "meta_mean_anomaly": 154.9799,
        "meta_ephemeris_type": 0,
        "meta_classification_type": "U",
        "meta_norad_cat_id": 66741,
        "meta_element_set_no": 999,
        "meta_rev_at_epoch": 427,
        "meta_bstar": 0.00022206589,
        "meta_mean_motion_dot": 4.404e-05,
        "meta_mean_motion_ddot": 0,
        "tle_line1": "1 66741U 25276CD  25360.91287897  .00004404  00000+0  22207-3 0  9990",
        "tle_line2": "2 66741  97.4402  72.4341 0001274 205.1373 154.9799 15.17658639  4276"
      },
      "geometry": {
        "type": "Point",
        "coordinates": [
          97.55205424637482,
          -72.69995760057701
        ]
      }
    },
    {
      "type": "Feature",
      "properties": {
        "norad_id": 66742,
        "name": "TRANSPORTER-15CE",
        "group": "last-30-days",
        "lat": -63.70381693946029,
        "lon": 88.07967796507533,
        "alt_km": 520.6106231693657,
        "timestamp": "2025-12-27T05:29:37.916590+00:00",
        "meta_object_name": "TRANSPORTER-15CE",
        "meta_object_id": "2025-276CE",
        "meta_epoch": "2025-12-26T21:52:01.791840",
        "meta_mean_motion": 15.17745578,
        "meta_eccentricity": 0.0002029,
        "meta_inclination": 97.4396,
        "meta_ra_of_asc_node": 72.4339,
        "meta_arg_of_pericenter": 174.6846,
        "meta_mean_anomaly": 185.441,
        "meta_ephemeris_type": 0,
        "meta_classification_type": "U",
        "meta_norad_cat_id": 66742,
        "meta_element_set_no": 999,
        "meta_rev_at_epoch": 427,
        "meta_bstar": 0.0003369567,
        "meta_mean_motion_dot": 6.736e-05,
        "meta_mean_motion_ddot": 0,
        "tle_line1": "1 66742U 25276CE  25360.91113185  .00006736  00000+0  33696-3 0  9993",
        "tle_line2": "2 66742  97.4396  72.4339 0002029 174.6846 185.4410 15.17745578  4278"
      },
      "geometry": {
        "type": "Point",
        "coordinates": [
          88.07967796507533,
          -63.70381693946029
        ]
      }
    },
    {
      "type": "Feature",
      "properties": {
        "norad_id": 66743,
        "name": "TRANSPORTER-15CF",
        "group": "last-30-days",
        "lat": -81.95942416854125,
        "lon": 140.407699844925,
        "alt_km": 520.3994348198285,
        "timestamp": "2025-12-27T05:29:37.916600+00:00",
        "meta_object_name": "TRANSPORTER-15CF",
        "meta_object_id": "2025-276CF",
        "meta_epoch": "2025-12-26T21:57:51.242688",
        "meta_mean_motion": 15.1757042,
        "meta_eccentricity": 9.298e-05,
        "meta_inclination": 97.4396,
        "meta_ra_of_asc_node": 72.4282,
        "meta_arg_of_pericenter": 196.9357,
        "meta_mean_anomaly": 163.1846,
        "meta_ephemeris_type": 0,
        "meta_classification_type": "U",
        "meta_norad_cat_id": 66743,
        "meta_element_set_no": 999,
        "meta_rev_at_epoch": 427,
        "meta_bstar": 0.00037841088,
        "meta_mean_motion_dot": 7.536e-05,
        "meta_mean_motion_ddot": 0,
        "tle_line1": "1 66743U 25276CF  25360.91517642  .00007536  00000+0  37841-3 0  9995",
        "tle_line2": "2 66743  97.4396  72.4282 0000929 196.9357 163.1846 15.17570420  4275"
      },
      "geometry": {
        "type": "Point",
        "coordinates": [
          140.407699844925,
          -81.95942416854125
        ]
      }
    },
    {
      "type": "Feature",
      "properties": {
        "norad_id": 66744,
        "name": "TRANSPORTER-15CG",
        "group": "last-30-days",
        "lat": -54.90486141027294,
        "lon": 83.34974516902665,
        "alt_km": 511.8599120719873,
        "timestamp": "2025-12-27T05:29:37.916610+00:00",
        "meta_object_name": "TRANSPORTER-15CG",
        "meta_object_id": "2025-276CG",
        "meta_epoch": "2025-12-25T03:09:31.796064",
        "meta_mean_motion": 15.19341003,
        "meta_eccentricity": 0.00243198,
        "meta_inclination": 97.3868,
        "meta_ra_of_asc_node": 70.659,
        "meta_arg_of_pericenter": 231.5349,
        "meta_mean_anomaly": 128.3704,
        "meta_ephemeris_type": 0,
        "meta_classification_type": "U",
        "meta_norad_cat_id": 66744,
        "meta_element_set_no": 999,
        "meta_rev_at_epoch": 400,
        "meta_bstar": 0.00064815362,
        "meta_mean_motion_dot": 0.00013749,
        "meta_mean_motion_ddot": 0,
        "tle_line1": "1 66744U 25276CG  25359.13161801  .00013749  00000+0  64815-3 0  9994",
        "tle_line2": "2 66744  97.3868  70.6590 0024319 231.5349 128.3704 15.19341003  4009"
      },
      "geometry": {
        "type": "Point",
        "coordinates": [
          83.34974516902665,
          -54.90486141027294
        ]
      }
    },
    {
      "type": "Feature",
      "properties": {
        "norad_id": 66745,
        "name": "TRANSPORTER-15CH",
        "group": "last-30-days",
        "lat": -82.50791044397309,
        "lon": 169.17329079292577,
        "alt_km": 520.9024535898052,
        "timestamp": "2025-12-27T05:29:37.916622+00:00",
        "meta_object_name": "TRANSPORTER-15CH",
        "meta_object_id": "2025-276CH",
        "meta_epoch": "2025-12-26T21:58:50.243520",
        "meta_mean_motion": 15.17419723,
        "meta_eccentricity": 0.00013895,
        "meta_inclination": 97.4403,
        "meta_ra_of_asc_node": 72.431,
        "meta_arg_of_pericenter": 186.5031,
        "meta_mean_anomaly": 173.6185,
        "meta_ephemeris_type": 0,
        "meta_classification_type": "U",
        "meta_norad_cat_id": 66745,
        "meta_element_set_no": 999,
        "meta_rev_at_epoch": 427,
        "meta_bstar": 0.00016244449,
        "meta_mean_motion_dot": 3.181e-05,
        "meta_mean_motion_ddot": 0,
        "tle_line1": "1 66745U 25276CH  25360.91585930  .00003181  00000+0  16244-3 0  9998",
        "tle_line2": "2 66745  97.4403  72.4310 0001389 186.5031 173.6185 15.17419723  4273"
      },
      "geometry": {
        "type": "Point",
        "coordinates": [
          169.17329079292577,
          -82.50791044397309
        ]
      }
    },
    {
      "type": "Feature",
      "properties": {
        "norad_id": 66746,
        "name": "TRANSPORTER-15CJ",
        "group": "last-30-days",
        "lat": -63.755494659809116,
        "lon": 88.01620816198069,
        "alt_km": 517.0942851574018,
        "timestamp": "2025-12-27T05:29:37.916632+00:00",
        "meta_object_name": "TRANSPORTER-15CJ",
        "meta_object_id": "2025-276CJ",
        "meta_epoch": "2025-12-26T21:52:35.548320",
        "meta_mean_motion": 15.19492098,
        "meta_eccentricity": 0.00134881,
        "meta_inclination": 97.383,
        "meta_ra_of_asc_node": 72.4577,
        "meta_arg_of_pericenter": 190.5558,
        "meta_mean_anomaly": 169.5395,
        "meta_ephemeris_type": 0,
        "meta_classification_type": "U",
        "meta_norad_cat_id": 66746,
        "meta_element_set_no": 999,
        "meta_rev_at_epoch": 427,
        "meta_bstar": 0.00099707725,
        "meta_mean_motion_dot": 0.00021188,
        "meta_mean_motion_ddot": 0,
        "tle_line1": "1 66746U 25276CJ  25360.91152255  .00021188  00000+0  99708-3 0  9992",
        "tle_line2": "2 66746  97.3830  72.4577 0013488 190.5558 169.5395 15.19492098  4279"
      },
      "geometry": {
        "type": "Point",
        "coordinates": [
          88.01620816198069,
          -63.755494659809116
        ]
      }
    }
  ]
}